STARLINK-30074          
1 57508C 23113P   26114.19354167 -.00022824  00000+0 -82679-3 0  1148
2 57508  43.0037 119.2284 0001534 271.0627  54.0987 15.27585692    13
STARLINK-30082          
1 57509C 23113Q   26114.18034722 -.00024963  00000+0 -90437-3 0  1147
2 57509  43.0007 119.0432 0001355 260.9852 104.7240 15.27583791    15
STARLINK-30153          
1 57510C 23113R   26114.18659722 -.00024408  00000+0 -88426-3 0  1141
2 57510  43.0016 118.7813 0001204 278.6534 220.4462 15.27583385    13
STARLINK-30147          
1 57511C 23113S   26114.16020833 -.00021278  00000+0 -77082-3 0  1143
2 57511  42.9999 119.0572 0001303 261.0740  36.2035 15.27583718    12
STARLINK-30157          
1 57512C 23113T   26114.16506944 -.00010696  00000+0 -38741-3 0  1147
2 57512  43.0018  93.4553 0001113 263.0228   8.3533 15.27585341    10
STARLINK-30168          
1 57513C 23113U   26114.16993056 -.00024799  00000+0 -89845-3 0  1142
2 57513  43.0002 118.9235 0001223 268.6994 103.3303 15.27582579    18
STARLINK-30231          
1 57514C 23113V   26114.18729167 -.00058233  00000+0 -21089-2 0  1140
2 57514  43.0011 119.0469 0000937 271.9898 110.7379 15.27612333    18
STARLINK-30081          
1 57515C 23113W   26114.22687500 -.00058657  00000+0 -21247-2 0  1146
2 57515  43.0012 118.5852 0001266 269.5091  77.2538 15.27604967    12
STARLINK-30149          
1 57516C 23113X   26114.22826389 -.00015394  00000+0 -55757-3 0  1142
2 57516  43.0003 118.7566 0001340 269.9487   6.6319 15.27585553    15
STARLINK-30259          
1 57521C 23115A   26114.19145833 -.00012925  00000+0 -46818-3 0  1149
2 57521  43.0035 104.6666 0001287 267.2376 311.7983 15.27582177    15
STARLINK-30256          
1 57522C 23115B   26114.18659722 -.00021546  00000+0 -78040-3 0  1147
2 57522  43.0031 104.9759 0001695 266.5082 165.4726 15.27588547    13
STARLINK-30261          
1 57523C 23115C   26114.20118056 -.00091852  00000+0 -33235-2 0  1144
2 57523  43.0047 104.7930 0001643 278.4467 276.3302 15.27656635    18
STARLINK-30260          
1 57524C 23115D   26114.17131944 -.00019214  00000+0 -69570-3 0  1146
2 57524  43.0029 104.7468 0001220 266.7869 222.4842 15.27599523    15
STARLINK-30253          
1 57525C 23115E   26114.18590278 -.00031281  00000+0 -11332-2 0  1147
2 57525  43.0043 104.8009 0001355 271.1382 234.8530 15.27588424    12
STARLINK-30257          
1 57526C 23115F   26114.15951389 -.00059213  00000+0 -21444-2 0  1149
2 57526  43.0044 104.9225 0001215 274.3906 107.5174 15.27612402    11
STARLINK-30250          
1 57527C 23115G   26114.22756944 -.00053954  00000+0 -19543-2 0  1141
2 57527  43.0044 104.6123 0001407 273.5581  80.6178 15.27604146    10
STARLINK-30269          
1 57528C 23115H   26114.15604167 -.00043334  00000+0 -15694-2 0  1147
2 57528  43.0024 105.2725 0001529 268.1906 313.1132 15.27603444    14
STARLINK-30266          
1 57529C 23115J   26114.17895833 -.00014016  00000+0 -50778-3 0  1140
2 57529  43.0001 104.5063 0001306 269.2065 339.9214 15.27578404    12
STARLINK-30270          
1 57530C 23115K   26114.16298611 -.00017012  00000+0 -61608-3 0  1145
2 57530  43.0000 104.5108 0000986 268.9167 294.7307 15.27591474    18
STARLINK-30268          
1 57531C 23115L   26114.23381944 -.00008237  00000+0 -29839-3 0  1145
2 57531  43.0026 104.7753 0001430 267.5435  43.2249 15.27575785    12
STARLINK-30251          
1 57532C 23115M   26114.23520833 -.00054484  00000+0 -19738-2 0  1149
2 57532  43.0000 104.1451 0001316 270.9060 309.2771 15.27599255    12
STARLINK-30254          
1 57533C 23115N   26114.16923611  .00046628  00000+0  16879-2 0  1145
2 57533  43.0006 206.3164 0001407 270.6991 157.3046 15.27573805    16
STARLINK-30264          
1 57534C 23115P   26114.18937500 -.00014426  00000+0 -52257-3 0  1144
2 57534  43.0015 311.9381 0001605 276.4361 143.8598 15.27582033    11
STARLINK-30166          
1 57602C 23119A   26114.16923611  .00036460  00000+0  13209-2 0  1143
2 57602  43.0014 184.5294 0001677 257.4724 127.3178 15.27551146    16
STARLINK-30223          
1 57603C 23119B   26114.22895833  .00023771  00000+0  14861-2 0  1141
2 57603  42.9983 192.0464 0002676   0.8703 265.3969 15.08668757    17
STARLINK-30218          
1 57604C 23119C   26114.17479167  .00038288  00000+0  13872-2 0  1144
2 57604  43.0023 184.7849 0001779 260.9576  34.1497 15.27548501    13
STARLINK-30138          
1 57605C 23119D   26114.18798611  .00033687  00000+0  12519-2 0  1149
2 57605  43.0029 184.7080 0001663 254.9554 113.9120 15.26716715    10
STARLINK-30255          
1 57606C 23119E   26114.16506944  .00040063  00000+0  14504-2 0  1146
2 57606  43.0019 184.6181 0001268 272.6769  60.8638 15.27574374    15
STARLINK-30252          
1 57607C 23119F   26114.22270833 -.00005843  00000+0 -21157-3 0  1141
2 57607  43.0035 169.4896 0001314 269.2765 174.2013 15.27587769    17
STARLINK-30258          
1 57608C 23119G   26114.16090278  .00035255  00000+0  12766-2 0  1141
2 57608  43.0011 185.1820 0001381 263.9811 173.1443 15.27569999    11
STARLINK-30174          
1 57609C 23119H   26114.16020833  .00038404  00000+0  13916-2 0  1149
2 57609  43.0005 184.4860 0001444 256.4395 114.0185 15.27544335    19
STARLINK-30248          
1 57610C 23119J   26114.22687500  .00013396  00000+0  48506-3 0  1145
2 57610  43.0005 184.0257 0001467 264.5318 148.3285 15.27582231    15
STARLINK-30052          
1 57611C 23119K   26114.21506944  .00019461  00000+0  72317-3 0  1143
2 57611  43.0019 184.1736 0001641 256.5883  55.7958 15.26727097    14
STARLINK-30245          
1 57612C 23119L   26114.17409722  .00028147  00000+0  10189-2 0  1144
2 57612  43.0002 184.3393 0001528 263.7404 211.4753 15.27582826    15
STARLINK-30041          
1 57613C 23119M   26114.19076389  .00021391  00000+0  77452-3 0  1147
2 57613  43.0012 184.3827 0001396 278.4384 231.9551 15.27578750    16
STARLINK-30244          
1 57614C 23119N   26114.19006944  .00024483  00000+0  88698-3 0  1147
2 57614  43.0022 184.4867 0001272 248.3657 215.7515 15.27558293    15
STARLINK-30246          
1 57615C 23119P   26114.21854167  .00017092  00000+0  61917-3 0  1142
2 57615  43.0024 184.3616 0001386 256.0746 343.5892 15.27564480    13
STARLINK-30075          
1 57616C 23119Q   26114.21090278  .00023526  00000+0  85230-3 0  1141
2 57616  43.0009 184.1057 0001485 255.6762  76.3397 15.27558624    11
STARLINK-30148          
1 57617C 23119R   26114.19979167  .00022044  00000+0  79854-3 0  1141
2 57617  42.9997 184.2570 0001466 256.5280 338.9249 15.27563224    16
STARLINK-30249          
1 57618C 23119S   26114.19284722 -.00007466  00000+0 -27766-3 0  1146
2 57618  43.0019 184.3107 0001425 244.9370 303.0360 15.26714989    19
STARLINK-30141          
1 57620C 23119U   26114.17548611  .00033967  00000+0  12616-2 0  1147
2 57620  43.0018 184.5699 0001413 262.3054 125.0721 15.26736061    17
STARLINK-30150          
1 57621C 23119V   26114.16576389  .00073293  00000+0  27228-2 0  1141
2 57621  43.0011 184.5397 0001192 283.3782  84.0460 15.26709626    12
STARLINK-30056          
1 57622C 23119W   26114.19215278  .00026308  00000+0  95241-3 0  1148
2 57622  43.0014 184.5611 0001426 275.1563 157.9416 15.27581594    15
STARLINK-30100          
1 57623C 23119X   26114.20118056  .00022696  00000+0  82162-3 0  1141
2 57623  43.0025 184.5794 0001120 277.8651 183.7463 15.27585190    13
STARLINK-30309          
1 57632C 23122A   26114.22340278  .00024725  00000+0  89603-3 0  1142
2 57632  42.9997 195.5156 0001467 265.4138 283.5528 15.27547905    13
STARLINK-30306          
1 57633C 23122B   26114.21020833  .00031604  00000+0  11451-2 0  1143
2 57633  43.0005 195.6385 0001525 254.6104 200.4918 15.27550726    15
STARLINK-30323          
1 57634C 23122C   26114.20326389  .00018515  00000+0  68749-3 0  1147
2 57634  43.0003 184.3007 0001431 258.3900 302.3341 15.26753246    14
STARLINK-30329          
1 57635C 23122D   26114.23451389  .00020719  00000+0  75013-3 0  1141
2 57635  43.0018 195.5856 0001122 269.9515 283.5790 15.27582580    14
STARLINK-30330          
1 57636C 23122E   26114.20812500  .00036671  00000+0  13277-2 0  1142
2 57636  43.0021 195.7848 0001091 268.7410 118.2836 15.27575117    11
STARLINK-30311          
1 57637C 23122F   26114.20187500  .00040227  00000+0  14577-2 0  1144
2 57637  43.0029 195.1446 0001640 265.7239   9.8806 15.27543700    19
STARLINK-30328          
1 57638C 23122G   26114.23034722  .00012755  00000+0  46170-3 0  1145
2 57638  43.0008 183.9951 0001436 263.3924 126.2445 15.27591794    10
STARLINK-30326          
1 57639C 23122H   26114.20465278  .00030424  00000+0  11025-2 0  1140
2 57639  42.9992 195.4554 0001369 255.6440 253.8245 15.27548160    14
STARLINK-30324          
1 57640C 23122J   26114.21368056  .00030136  00000+0  10911-2 0  1142
2 57640  43.0007 195.6506 0001538 259.2941 200.7501 15.27576719    15
STARLINK-30312          
1 57641C 23122K   26114.18034722  .00037339  00000+0  13529-2 0  1149
2 57641  43.0026 195.1812 0001469 263.8686 288.5764 15.27547676    17
STARLINK-30263          
1 57642C 23122L   26114.20465278  .00038427  00000+0  13918-2 0  1148
2 57642  43.0024 195.1763 0001336 277.1372 352.5137 15.27558763    19
STARLINK-30280          
1 57643C 23122M   26114.19979167  .00033999  00000+0  12320-2 0  1149
2 57643  43.0011 195.3026 0001639 257.4630 303.0110 15.27547611    16
STARLINK-30247          
1 57644C 23122N   26114.19562500  .00034793  00000+0  12608-2 0  1141
2 57644  43.0020 195.2818 0001644 257.1936 301.5474 15.27546319    17
STARLINK-30277          
1 57645C 23122P   26114.17340278  .00030174  00000+0  10927-2 0  1147
2 57645  43.0012  53.5311 0001549 266.0092  80.1654 15.27569206    19
STARLINK-30265          
1 57646C 23122Q   26114.21368056  .00039266  00000+0  14217-2 0  1144
2 57646  43.0028 195.0433 0001524 266.7524  87.9684 15.27570051    12
